{"type": "FeatureCollection", "features": [{"type": "Feature", "geometry": {"type": "Point", "coordinates": [-2.824997, 42.575005]}, "properties": {"codigo": "EBR-01", "estacion": "Ebro en Miranda de Ebro", "rio": "Ebro", "cuenca": "Ebro", "desemboca": "Mar Mediterráneo (Delta del Ebro)", "caudal_m3s": 3.29, "caudal_medio_anual": 54.898, "anomalia_pct": -76.9, "caudal_anio_pasado": 6.96, "tendencia": "baja", "regimen_mensual": {"ene": 77.487, "feb": 96.727, "mar": 97.076, "abr": 87.634, "may": 74.279, "jun": 49.401, "jul": 16.921, "ago": 9.372, "sep": 14.259, "oct": 23.671, "nov": 50.091, "dic": 63.117}, "fecha": "2026-09-08"}}, {"type": "Feature", "geometry": {"type": "Point", "coordinates": [-2.324997, 42.425003]}, "properties": {"codigo": "EBR-02", "estacion": "Ebro en Logroño", "rio": "Ebro", "cuenca": "Ebro", "desemboca": "Mar Mediterráneo (Delta del Ebro)", "caudal_m3s": 3.19, "caudal_medio_anual": 72.206, "anomalia_pct": -82.3, "caudal_anio_pasado": 8.35, "tendencia": "baja", "regimen_mensual": {"ene": 96.06, "feb": 121.575, "mar": 129.269, "abr": 121.364, "may": 106.311, "jun": 71.513, "jul": 23.365, "ago": 11.596, "sep": 17.998, "oct": 28.711, "nov": 61.64, "dic": 78.072}, "fecha": "2026-09-08"}}, {"type": "Feature", "geometry": {"type": "Point", "coordinates": [-0.87498474, 41.625]}, "properties": {"codigo": "EBR-03", "estacion": "Ebro en Zaragoza", "rio": "Ebro", "cuenca": "Ebro", "desemboca": "Mar Mediterráneo (Delta del Ebro)", "caudal_m3s": 9.14, "caudal_medio_anual": 226.198, "anomalia_pct": -89.8, "caudal_anio_pasado": 42.45, "tendencia": "sube", "regimen_mensual": {"ene": 278.809, "feb": 334.869, "mar": 367.331, "abr": 366.777, "may": 345.139, "jun": 233.435, "jul": 68.447, "ago": 40.647, "sep": 89.192, "oct": 134.243, "nov": 218.556, "dic": 240.663}, "fecha": "2026-09-08"}}, {"type": "Feature", "geometry": {"type": "Point", "coordinates": [0.52500916, 40.725006]}, "properties": {"codigo": "EBR-04", "estacion": "Ebro en Tortosa", "rio": "Ebro", "cuenca": "Ebro", "desemboca": "Mar Mediterráneo (Delta del Ebro)", "caudal_m3s": 114.35, "caudal_medio_anual": 296.506, "anomalia_pct": -18.9, "caudal_anio_pasado": 126.06, "tendencia": "estable", "regimen_mensual": {"ene": 304.649, "feb": 389.552, "mar": 444.848, "abr": 456.832, "may": 484.624, "jun": 360.832, "jul": 169.558, "ago": 133.316, "sep": 141.035, "oct": 162.55, "nov": 224.244, "dic": 283.321}, "fecha": "2026-09-08"}}, {"type": "Feature", "geometry": {"type": "Point", "coordinates": [-4.924988, 39.925003]}, "properties": {"codigo": "TAJ-03", "estacion": "Tajo en Talavera de la Reina", "rio": "Tajo", "cuenca": "Tajo", "desemboca": "Océano Atlántico (Lisboa)", "caudal_m3s": 17.66, "caudal_medio_anual": 67.91, "anomalia_pct": -46.2, "caudal_anio_pasado": 17.37, "tendencia": "baja", "regimen_mensual": {"ene": 82.295, "feb": 93.328, "mar": 114.634, "abr": 111.537, "may": 77.655, "jun": 38.741, "jul": 20.285, "ago": 18.921, "sep": 32.855, "oct": 65.893, "nov": 80.202, "dic": 80.495}, "fecha": "2026-09-08"}}, {"type": "Feature", "geometry": {"type": "Point", "coordinates": [-6.974991, 39.725006]}, "properties": {"codigo": "TAJ-04", "estacion": "Tajo en Alcántara", "rio": "Tajo", "cuenca": "Tajo", "desemboca": "Océano Atlántico (Lisboa)", "caudal_m3s": 106.15, "caudal_medio_anual": 204.444, "anomalia_pct": 3.8, "caudal_anio_pasado": 106.65, "tendencia": "estable", "regimen_mensual": {"ene": 326.253, "feb": 333.222, "mar": 314.848, "abr": 284.415, "may": 181.702, "jun": 114.659, "jul": 104.501, "ago": 103.446, "sep": 102.28, "oct": 109.528, "nov": 207.98, "dic": 275.388}, "fecha": "2026-09-08"}}, {"type": "Feature", "geometry": {"type": "Point", "coordinates": [-3.774994, 41.675003]}, "properties": {"codigo": "DUE-01", "estacion": "Duero en Aranda de Duero", "rio": "Duero", "cuenca": "Duero", "desemboca": "Océano Atlántico (Oporto)", "caudal_m3s": 0.23, "caudal_medio_anual": 18.034, "anomalia_pct": -95.2, "caudal_anio_pasado": 0.52, "tendencia": "baja", "regimen_mensual": {"ene": 22.432, "feb": 26.579, "mar": 33.023, "abr": 32.157, "may": 29.296, "jun": 17.25, "jul": 6.782, "ago": 2.185, "sep": 4.774, "oct": 8.168, "nov": 15.559, "dic": 18.176}, "fecha": "2026-09-08"}}, {"type": "Feature", "geometry": {"type": "Point", "coordinates": [-5.074997, 41.475006]}, "properties": {"codigo": "DUE-02", "estacion": "Duero en Tordesillas", "rio": "Duero", "cuenca": "Duero", "desemboca": "Océano Atlántico (Oporto)", "caudal_m3s": 4.5, "caudal_medio_anual": 109.546, "anomalia_pct": -76.4, "caudal_anio_pasado": 4.11, "tendencia": "baja", "regimen_mensual": {"ene": 153.605, "feb": 181.754, "mar": 203.39, "abr": 202.444, "may": 169.612, "jun": 88.805, "jul": 24.18, "ago": 8.118, "sep": 19.064, "oct": 46.823, "nov": 91.545, "dic": 126.233}, "fecha": "2026-09-08"}}, {"type": "Feature", "geometry": {"type": "Point", "coordinates": [-4.174988, 38.075005]}, "properties": {"codigo": "GDQ-01", "estacion": "Guadalquivir en Andújar", "rio": "Guadalquivir", "cuenca": "Guadalquivir", "desemboca": "Océano Atlántico (Sanlúcar de Barrameda)", "caudal_m3s": 0.58, "caudal_medio_anual": 5.81, "anomalia_pct": -69.7, "caudal_anio_pasado": 0.02, "tendencia": "sube", "regimen_mensual": {"ene": 11.779, "feb": 15.409, "mar": 13.2, "abr": 6.69, "may": 2.82, "jun": 0.93, "jul": 0.018, "ago": 0.036, "sep": 1.913, "oct": 3.765, "nov": 5.787, "dic": 7.886}, "fecha": "2026-09-08"}}, {"type": "Feature", "geometry": {"type": "Point", "coordinates": [-4.8749847, 37.825005]}, "properties": {"codigo": "GDQ-02", "estacion": "Guadalquivir en Córdoba", "rio": "Guadalquivir", "cuenca": "Guadalquivir", "desemboca": "Océano Atlántico (Sanlúcar de Barrameda)", "caudal_m3s": 1.67, "caudal_medio_anual": 10.733, "anomalia_pct": -52.4, "caudal_anio_pasado": 0.17, "tendencia": "sube", "regimen_mensual": {"ene": 21.444, "feb": 26.3, "mar": 25.281, "abr": 12.268, "may": 4.672, "jun": 1.593, "jul": 0.195, "ago": 0.212, "sep": 3.511, "oct": 7.489, "nov": 11.294, "dic": 15.356}, "fecha": "2026-09-08"}}, {"type": "Feature", "geometry": {"type": "Point", "coordinates": [-6.074997, 37.275]}, "properties": {"codigo": "GDQ-03", "estacion": "Guadalquivir en Sevilla", "rio": "Guadalquivir", "cuenca": "Guadalquivir", "desemboca": "Océano Atlántico (Sanlúcar de Barrameda)", "caudal_m3s": 2.09, "caudal_medio_anual": 27.718, "anomalia_pct": -78.4, "caudal_anio_pasado": 0.81, "tendencia": "sube", "regimen_mensual": {"ene": 55.511, "feb": 59.517, "mar": 64.13, "abr": 29.488, "may": 9.644, "jun": 3.106, "jul": 0.661, "ago": 0.681, "sep": 9.686, "oct": 24.281, "nov": 31.937, "dic": 45.829}, "fecha": "2026-09-08"}}, {"type": "Feature", "geometry": {"type": "Point", "coordinates": [-6.424988, 38.925003]}, "properties": {"codigo": "GDN-01", "estacion": "Guadiana en Mérida", "rio": "Guadiana", "cuenca": "Guadiana", "desemboca": "Océano Atlántico (Ayamonte)", "caudal_m3s": 0.0, "caudal_medio_anual": 26.671, "anomalia_pct": -100.0, "caudal_anio_pasado": 0.0, "tendencia": null, "regimen_mensual": {"ene": 51.413, "feb": 72.93, "mar": 57.629, "abr": 28.637, "may": 8.42, "jun": 0.464, "jul": 0.003, "ago": 0.005, "sep": 11.42, "oct": 17.265, "nov": 33.082, "dic": 41.881}, "fecha": "2026-09-08"}}, {"type": "Feature", "geometry": {"type": "Point", "coordinates": [-1.0249939, 38.075005]}, "properties": {"codigo": "SEG-01", "estacion": "Segura en Murcia", "rio": "Segura", "cuenca": "Segura", "desemboca": "Mar Mediterráneo (Guardamar del Segura)", "caudal_m3s": 2.26, "caudal_medio_anual": 15.778, "anomalia_pct": -86.2, "caudal_anio_pasado": 2.4, "tendencia": "estable", "regimen_mensual": {"ene": 17.192, "feb": 13.293, "mar": 41.714, "abr": 28.038, "may": 17.238, "jun": 6.199, "jul": 2.166, "ago": 3.135, "sep": 16.375, "oct": 13.79, "nov": 12.501, "dic": 17.368}, "fecha": "2026-09-08"}}, {"type": "Feature", "geometry": {"type": "Point", "coordinates": [-0.82499695, 38.075005]}, "properties": {"codigo": "SEG-02", "estacion": "Segura en Orihuela", "rio": "Segura", "cuenca": "Segura", "desemboca": "Mar Mediterráneo (Guardamar del Segura)", "caudal_m3s": 2.37, "caudal_medio_anual": 16.349, "anomalia_pct": -86.4, "caudal_anio_pasado": 2.54, "tendencia": "estable", "regimen_mensual": {"ene": 17.856, "feb": 13.671, "mar": 42.649, "abr": 28.856, "may": 17.8, "jun": 6.269, "jul": 2.076, "ago": 3.22, "sep": 17.388, "oct": 14.792, "nov": 13.266, "dic": 18.046}, "fecha": "2026-09-08"}}, {"type": "Feature", "geometry": {"type": "Point", "coordinates": [-7.574997, 42.925003]}, "properties": {"codigo": "MIN-01", "estacion": "Miño en Lugo", "rio": "Miño", "cuenca": "Miño-Sil", "desemboca": "Océano Atlántico (A Guarda)", "caudal_m3s": 18.19, "caudal_medio_anual": 56.086, "anomalia_pct": -11.2, "caudal_anio_pasado": 20.18, "tendencia": "baja", "regimen_mensual": {"ene": 97.181, "feb": 92.382, "mar": 75.168, "abr": 67.233, "may": 55.571, "jun": 38.907, "jul": 25.85, "ago": 20.221, "sep": 20.487, "oct": 31.357, "nov": 63.816, "dic": 86.611}, "fecha": "2026-09-08"}}, {"type": "Feature", "geometry": {"type": "Point", "coordinates": [-7.974991, 42.325005]}, "properties": {"codigo": "MIN-02", "estacion": "Miño en Ourense", "rio": "Miño", "cuenca": "Miño-Sil", "desemboca": "Océano Atlántico (A Guarda)", "caudal_m3s": 76.09, "caudal_medio_anual": 235.37, "anomalia_pct": -6.1, "caudal_anio_pasado": 78.43, "tendencia": "baja", "regimen_mensual": {"ene": 399.236, "feb": 398.954, "mar": 343.483, "abr": 305.853, "may": 246.047, "jun": 166.815, "jul": 105.263, "ago": 80.451, "sep": 81.031, "oct": 121.941, "nov": 232.566, "dic": 348.646}, "fecha": "2026-09-08"}}]}