{"type":"FeatureCollection","_nota":"DATOS DE MUESTRA para previsualizar el mapa. El robot los reemplaza con datos oficiales reales.","features":[
{"type":"Feature","geometry":{"type":"Point","coordinates":[-3.980,42.995]},"properties":{"codigo":"A026","estacion":"Ebro en Arroyo","rio":"Ebro","cuenca":"Ebro","desemboca":"Mar Mediterráneo (Delta del Ebro)","caudal_m3s":4.2,"nivel_m":0.85,"caudal_medio_anual":6.1,"anomalia_pct":-31.1,"regimen_mensual":{"ene":9.8,"feb":9.1,"mar":8.0,"abr":7.2,"may":6.0,"jun":4.1,"jul":2.6,"ago":2.1,"sep":2.9,"oct":4.8,"nov":7.0,"dic":9.2},"fecha":"2026-07-24T06:00:00"}},
{"type":"Feature","geometry":{"type":"Point","coordinates":[-2.445,42.462]},"properties":{"codigo":"A280","estacion":"Ebro en Logroño","rio":"Ebro","cuenca":"Ebro","desemboca":"Mar Mediterráneo (Delta del Ebro)","caudal_m3s":38.0,"nivel_m":1.42,"caudal_medio_anual":86.0,"anomalia_pct":-55.8,"regimen_mensual":{"ene":150,"feb":145,"mar":120,"abr":100,"may":80,"jun":55,"jul":32,"ago":28,"sep":35,"oct":60,"nov":110,"dic":140},"fecha":"2026-07-24T06:00:00"}},
{"type":"Feature","geometry":{"type":"Point","coordinates":[-1.688,42.170]},"properties":{"codigo":"A002","estacion":"Ebro en Castejón","rio":"Ebro","cuenca":"Ebro","desemboca":"Mar Mediterráneo (Delta del Ebro)","caudal_m3s":62.0,"nivel_m":1.70,"caudal_medio_anual":153.0,"anomalia_pct":-59.5,"regimen_mensual":{"ene":270,"feb":260,"mar":210,"abr":175,"may":140,"jun":95,"jul":55,"ago":48,"sep":62,"oct":110,"nov":195,"dic":250},"fecha":"2026-07-24T06:00:00"}},
{"type":"Feature","geometry":{"type":"Point","coordinates":[-0.878,41.662]},"properties":{"codigo":"A011","estacion":"Ebro en Zaragoza","rio":"Ebro","cuenca":"Ebro","desemboca":"Mar Mediterráneo (Delta del Ebro)","caudal_m3s":78.0,"nivel_m":1.05,"caudal_medio_anual":209.0,"anomalia_pct":-62.7,"regimen_mensual":{"ene":360,"feb":350,"mar":285,"abr":235,"may":185,"jun":125,"jul":72,"ago":62,"sep":82,"oct":150,"nov":265,"dic":340},"fecha":"2026-07-24T06:00:00"}},
{"type":"Feature","geometry":{"type":"Point","coordinates":[0.521,40.812]},"properties":{"codigo":"A005","estacion":"Ebro en Tortosa","rio":"Ebro","cuenca":"Ebro","desemboca":"Mar Mediterráneo (Delta del Ebro)","caudal_m3s":95.0,"nivel_m":2.10,"caudal_medio_anual":424.0,"anomalia_pct":-77.6,"regimen_mensual":{"ene":700,"feb":680,"mar":560,"abr":470,"may":370,"jun":250,"jul":150,"ago":130,"sep":170,"oct":300,"nov":540,"dic":690},"fecha":"2026-07-24T06:00:00"}}
]}
